STARLINK-34992          
1 65412U 25192J   25336.26359533  .00044977  00000+0  11274-2 0  9999
2 65412  53.1599 330.8701 0001253  94.2529 265.8620 15.39630651 14380
STARLINK-35003          
1 65413U 25192K   25335.99000721  .00039995  00000+0  10036-2 0  9990
2 65413  53.1599 332.0061 0000483  60.9033 299.2020 15.39651580 14343
STARLINK-34411          
1 65414U 25192L   25336.25285905  .00065751  00000+0  16374-2 0  9990
2 65414  53.1602 330.8028 0001990  91.1799 268.9434 15.39660248 14384
STARLINK-34238          
1 65415U 25192M   25336.24501984  .00044810  00000+0  11231-2 0  9998
2 65415  53.1598 330.7518 0001737 130.9412 229.1743 15.39635442 14385
STARLINK-34855          
1 65416U 25192N   25336.25895239  .00055403  00000+0  13849-2 0  9996
2 65416  53.1600 330.8399 0001315  87.1147 273.0008 15.39622845 14383
STARLINK-34255          
1 65417U 25192P   25336.24037710  .00067230  00000+0  16746-2 0  9998
2 65417  53.1599 330.7213 0001226 100.8825 259.2318 15.39644196 14385
STARLINK-34997          
1 65418U 25192Q   25336.23085605  .00065143  00000+0  16238-2 0  9991
2 65418  53.1593 331.3800 0001065  86.6853 273.4274 15.39636516 14377
STARLINK-35085          
1 65419U 25192R   25336.29112677  .00030389  00000+0  76609-3 0  9991
2 65419  53.1594 331.0444 0001871  92.1549 267.9671 15.39642565 14380
STARLINK-35138          
1 65420U 25192S   25336.28183662  .00047390  00000+0  11864-2 0  9995
2 65420  53.1591 330.9828 0001170  98.0812 262.0325 15.39645745 14388
STARLINK-35146          
1 65421U 25192T   25336.27719570  .00052857  00000+0  13218-2 0  9997
2 65421  53.1595 330.9527 0001260  94.6233 265.4916 15.39630560 14379
STARLINK-35074          
1 65422U 25192U   25336.23540397  .00046612  00000+0  11681-2 0  9997
2 65422  53.1591 330.6907 0001381  97.1980 262.9182 15.39621804 14385
STARLINK-34837          
1 65423U 25192V   25336.22156884  .00044723  00000+0  11213-2 0  9993
2 65423  53.1592 331.3177 0001298  98.0959 262.0193 15.39624896 14373
STARLINK-34670          
1 65424U 25192W   25336.27254657  .00056880  00000+0  14226-2 0  9990
2 65424  53.1595 330.9242 0001375  83.5756 276.5405 15.39593254 14385
STARLINK-35095          
1 65425U 25192X   25336.25861993  .00025344  00000+0  64129-3 0  9995
2 65425  53.1599 330.8361 0001273  75.9031 284.2115 15.39628893 14381
STARLINK-34883          
1 65426U 25192Y   25336.26326470  .00062912  00000+0  15702-2 0  9997
2 65426  53.1597 330.8649 0001285 100.6559 259.4591 15.39612696 14378
STARLINK-34916          
1 65427U 25192Z   25336.26790882  .00047244  00000+0  11839-2 0  9998
2 65427  53.1587 330.8939 0001238  93.4986 266.6160 15.39616910 14387
