[{"OBJECT_NAME":"STARLINK-34992","OBJECT_ID":"2025-192J","EPOCH":"2025-12-02T06:19:34.636512","MEAN_MOTION":15.39630651,"ECCENTRICITY":0.0001253,"INCLINATION":53.1599,"RA_OF_ASC_NODE":330.8701,"ARG_OF_PERICENTER":94.2529,"MEAN_ANOMALY":265.862,"EPHEMERIS_TYPE":0,"CLASSIFICATION_TYPE":"U","NORAD_CAT_ID":65412,"ELEMENT_SET_NO":999,"REV_AT_EPOCH":1438,"BSTAR":0.0011273921,"MEAN_MOTION_DOT":0.00044977,"MEAN_MOTION_DDOT":0},{"OBJECT_NAME":"STARLINK-35003","OBJECT_ID":"2025-192K","EPOCH":"2025-12-01T23:45:36.622944","MEAN_MOTION":15.3965158,"ECCENTRICITY":4.834e-5,"INCLINATION":53.1599,"RA_OF_ASC_NODE":332.0061,"ARG_OF_PERICENTER":60.9033,"MEAN_ANOMALY":299.202,"EPHEMERIS_TYPE":0,"CLASSIFICATION_TYPE":"U","NORAD_CAT_ID":65413,"ELEMENT_SET_NO":999,"REV_AT_EPOCH":1434,"BSTAR":0.0010035798,"MEAN_MOTION_DOT":0.00039995,"MEAN_MOTION_DDOT":0},{"OBJECT_NAME":"STARLINK-34411","OBJECT_ID":"2025-192L","EPOCH":"2025-12-02T06:04:07.021920","MEAN_MOTION":15.39660248,"ECCENTRICITY":0.000199,"INCLINATION":53.1602,"RA_OF_ASC_NODE":330.8028,"ARG_OF_PERICENTER":91.1799,"MEAN_ANOMALY":268.9434,"EPHEMERIS_TYPE":0,"CLASSIFICATION_TYPE":"U","NORAD_CAT_ID":65414,"ELEMENT_SET_NO":999,"REV_AT_EPOCH":1438,"BSTAR":0.0016374264,"MEAN_MOTION_DOT":0.00065751,"MEAN_MOTION_DDOT":0},{"OBJECT_NAME":"STARLINK-34238","OBJECT_ID":"2025-192M","EPOCH":"2025-12-02T05:52:49.714176","MEAN_MOTION":15.39635442,"ECCENTRICITY":0.0001737,"INCLINATION":53.1598,"RA_OF_ASC_NODE":330.7518,"ARG_OF_PERICENTER":130.9412,"MEAN_ANOMALY":229.1743,"EPHEMERIS_TYPE":0,"CLASSIFICATION_TYPE":"U","NORAD_CAT_ID":65415,"ELEMENT_SET_NO":999,"REV_AT_EPOCH":1438,"BSTAR":0.0011230599,"MEAN_MOTION_DOT":0.0004481,"MEAN_MOTION_DDOT":0},{"OBJECT_NAME":"STARLINK-34855","OBJECT_ID":"2025-192N","EPOCH":"2025-12-02T06:12:53.486496","MEAN_MOTION":15.39622845,"ECCENTRICITY":0.00013156,"INCLINATION":53.16,"RA_OF_ASC_NODE":330.8399,"ARG_OF_PERICENTER":87.1147,"MEAN_ANOMALY":273.0008,"EPHEMERIS_TYPE":0,"CLASSIFICATION_TYPE":"U","NORAD_CAT_ID":65416,"ELEMENT_SET_NO":999,"REV_AT_EPOCH":1438,"BSTAR":0.00138487,"MEAN_MOTION_DOT":0.00055403,"MEAN_MOTION_DDOT":0},{"OBJECT_NAME":"STARLINK-34255","OBJECT_ID":"2025-192P","EPOCH":"2025-12-02T05:46:08.581440","MEAN_MOTION":15.39644196,"ECCENTRICITY":0.00012268,"INCLINATION":53.1599,"RA_OF_ASC_NODE":330.7213,"ARG_OF_PERICENTER":100.8825,"MEAN_ANOMALY":259.2318,"EPHEMERIS_TYPE":0,"CLASSIFICATION_TYPE":"U","NORAD_CAT_ID":65417,"ELEMENT_SET_NO":999,"REV_AT_EPOCH":1438,"BSTAR":0.0016746164,"MEAN_MOTION_DOT":0.0006723,"MEAN_MOTION_DDOT":0},{"OBJECT_NAME":"STARLINK-34997","OBJECT_ID":"2025-192Q","EPOCH":"2025-12-02T05:32:25.962720","MEAN_MOTION":15.39636516,"ECCENTRICITY":0.0001065,"INCLINATION":53.1593,"RA_OF_ASC_NODE":331.38,"ARG_OF_PERICENTER":86.6853,"MEAN_ANOMALY":273.4274,"EPHEMERIS_TYPE":0,"CLASSIFICATION_TYPE":"U","NORAD_CAT_ID":65418,"ELEMENT_SET_NO":999,"REV_AT_EPOCH":1437,"BSTAR":0.0016238032,"MEAN_MOTION_DOT":0.00065143,"MEAN_MOTION_DDOT":0},{"OBJECT_NAME":"STARLINK-35085","OBJECT_ID":"2025-192R","EPOCH":"2025-12-02T06:59:13.352928","MEAN_MOTION":15.39642565,"ECCENTRICITY":0.00018713,"INCLINATION":53.1594,"RA_OF_ASC_NODE":331.0444,"ARG_OF_PERICENTER":92.1549,"MEAN_ANOMALY":267.9671,"EPHEMERIS_TYPE":0,"CLASSIFICATION_TYPE":"U","NORAD_CAT_ID":65419,"ELEMENT_SET_NO":999,"REV_AT_EPOCH":1438,"BSTAR":0.00076608949,"MEAN_MOTION_DOT":0.00030389,"MEAN_MOTION_DDOT":0},{"OBJECT_NAME":"STARLINK-35138","OBJECT_ID":"2025-192S","EPOCH":"2025-12-02T06:45:50.683968","MEAN_MOTION":15.39645745,"ECCENTRICITY":0.00011702,"INCLINATION":53.1591,"RA_OF_ASC_NODE":330.9828,"ARG_OF_PERICENTER":98.0812,"MEAN_ANOMALY":262.0325,"EPHEMERIS_TYPE":0,"CLASSIFICATION_TYPE":"U","NORAD_CAT_ID":65420,"ELEMENT_SET_NO":999,"REV_AT_EPOCH":1438,"BSTAR":0.0011863702,"MEAN_MOTION_DOT":0.0004739,"MEAN_MOTION_DDOT":0},{"OBJECT_NAME":"STARLINK-35146","OBJECT_ID":"2025-192T","EPOCH":"2025-12-02T06:39:09.708480","MEAN_MOTION":15.3963056,"ECCENTRICITY":0.00012602,"INCLINATION":53.1595,"RA_OF_ASC_NODE":330.9527,"ARG_OF_PERICENTER":94.6233,"MEAN_ANOMALY":265.4916,"EPHEMERIS_TYPE":0,"CLASSIFICATION_TYPE":"U","NORAD_CAT_ID":65421,"ELEMENT_SET_NO":999,"REV_AT_EPOCH":1437,"BSTAR":0.0013218098,"MEAN_MOTION_DOT":0.00052857,"MEAN_MOTION_DDOT":0},{"OBJECT_NAME":"STARLINK-35074","OBJECT_ID":"2025-192U","EPOCH":"2025-12-02T05:38:58.903008","MEAN_MOTION":15.39621804,"ECCENTRICITY":0.00013813,"INCLINATION":53.1591,"RA_OF_ASC_NODE":330.6907,"ARG_OF_PERICENTER":97.198,"MEAN_ANOMALY":262.9182,"EPHEMERIS_TYPE":0,"CLASSIFICATION_TYPE":"U","NORAD_CAT_ID":65422,"ELEMENT_SET_NO":999,"REV_AT_EPOCH":1438,"BSTAR":0.0011680839,"MEAN_MOTION_DOT":0.00046612,"MEAN_MOTION_DDOT":0},{"OBJECT_NAME":"STARLINK-34837","OBJECT_ID":"2025-192V","EPOCH":"2025-12-02T05:19:03.547776","MEAN_MOTION":15.39624896,"ECCENTRICITY":0.00012983,"INCLINATION":53.1592,"RA_OF_ASC_NODE":331.3177,"ARG_OF_PERICENTER":98.0959,"MEAN_ANOMALY":262.0193,"EPHEMERIS_TYPE":0,"CLASSIFICATION_TYPE":"U","NORAD_CAT_ID":65423,"ELEMENT_SET_NO":999,"REV_AT_EPOCH":1437,"BSTAR":0.0011213123,"MEAN_MOTION_DOT":0.00044723,"MEAN_MOTION_DDOT":0},{"OBJECT_NAME":"STARLINK-34670","OBJECT_ID":"2025-192W","EPOCH":"2025-12-02T06:32:28.023648","MEAN_MOTION":15.39593254,"ECCENTRICITY":0.00013753,"INCLINATION":53.1595,"RA_OF_ASC_NODE":330.9242,"ARG_OF_PERICENTER":83.5756,"MEAN_ANOMALY":276.5405,"EPHEMERIS_TYPE":0,"CLASSIFICATION_TYPE":"U","NORAD_CAT_ID":65424,"ELEMENT_SET_NO":999,"REV_AT_EPOCH":1438,"BSTAR":0.0014226451,"MEAN_MOTION_DOT":0.0005688,"MEAN_MOTION_DDOT":0},{"OBJECT_NAME":"STARLINK-35095","OBJECT_ID":"2025-192X","EPOCH":"2025-12-02T06:12:24.761952","MEAN_MOTION":15.39628893,"ECCENTRICITY":0.0001273,"INCLINATION":53.1599,"RA_OF_ASC_NODE":330.8361,"ARG_OF_PERICENTER":75.9031,"MEAN_ANOMALY":284.2115,"EPHEMERIS_TYPE":0,"CLASSIFICATION_TYPE":"U","NORAD_CAT_ID":65425,"ELEMENT_SET_NO":999,"REV_AT_EPOCH":1438,"BSTAR":0.00064128538,"MEAN_MOTION_DOT":0.00025344,"MEAN_MOTION_DDOT":0},{"OBJECT_NAME":"STARLINK-34883","OBJECT_ID":"2025-192Y","EPOCH":"2025-12-02T06:19:06.070080","MEAN_MOTION":15.39612696,"ECCENTRICITY":0.00012857,"INCLINATION":53.1597,"RA_OF_ASC_NODE":330.8649,"ARG_OF_PERICENTER":100.6559,"MEAN_ANOMALY":259.4591,"EPHEMERIS_TYPE":0,"CLASSIFICATION_TYPE":"U","NORAD_CAT_ID":65426,"ELEMENT_SET_NO":999,"REV_AT_EPOCH":1437,"BSTAR":0.0015702112,"MEAN_MOTION_DOT":0.00062912,"MEAN_MOTION_DDOT":0},{"OBJECT_NAME":"STARLINK-34916","OBJECT_ID":"2025-192Z","EPOCH":"2025-12-02T06:25:47.322048","MEAN_MOTION":15.3961691,"ECCENTRICITY":0.0001238,"INCLINATION":53.1587,"RA_OF_ASC_NODE":330.8939,"ARG_OF_PERICENTER":93.4986,"MEAN_ANOMALY":266.616,"EPHEMERIS_TYPE":0,"CLASSIFICATION_TYPE":"U","NORAD_CAT_ID":65427,"ELEMENT_SET_NO":999,"REV_AT_EPOCH":1438,"BSTAR":0.0011838897,"MEAN_MOTION_DOT":0.00047244,"MEAN_MOTION_DDOT":0}]
